NORAD_CAT_ID,OBJECT_NAME,OBJECT_TYPE,EPOCH,MEAN_MOTION,ECCENTRICITY,INCLINATION,RA_OF_ASC_NODE,ARG_OF_PERICENTER,MEAN_ANOMALY,BSTAR,MEAN_MOTION_DOT,MEAN_MOTION_DDOT,TLE_LINE0,TLE_LINE1,TLE_LINE2,SEMIMAJOR_AXIS,PERIOD,APOGEE,PERIGEE,DECAYED
53833.0,STARLINK-4771,PAYLOAD,2022-11-17 22:00:00,15.24400615,0.0001426999999999,53.2168,326.2276,48.9035,22.9422,-0.051153,-0.01170382,0.0,0 STARLINK-4771,1 53833U 22114R   22321.91667824 -.01170382  00000-0 -51153-1 0  9995,2 53833  53.2168 326.2276 0001427  48.9035  22.9422 15.24400615  1303,6870.723000000001,94.463,493.568,491.607,0.0
53833.0,STARLINK-4771,PAYLOAD,2022-11-18 14:00:01,15.22769824,0.0001523,53.2164,323.1677,52.8425,77.5811,-0.053471,-0.01165577,0.0,0 STARLINK-4771,1 53833U 22114R   22322.58334491 -.01165577  00000-0 -53471-1 0  9995,2 53833  53.2164 323.1677 0001523  52.8425  77.5811 15.22769824  1300,6875.627,94.565,498.54,496.445,0.0
53833.0,STARLINK-4771,PAYLOAD,2022-11-18 22:00:00,15.21961178,0.0001488,53.2169,321.6385,53.9965,104.2477,-0.055236,-0.01174695,0.0,0 STARLINK-4771,1 53833U 22114R   22322.91667824 -.01174695  00000-0 -55236-1 0  9993,2 53833  53.2169 321.6385 0001488  53.9965 104.2477 15.21961178  1306,6878.063,94.615,500.951,498.904,0.0
53833.0,STARLINK-4771,PAYLOAD,2022-11-19 08:00:01,15.2092525,0.0001361,53.2174,319.7333,71.7707,209.8829,-0.055515,-0.01147269,0.0,0 STARLINK-4771,1 53833U 22114R   22323.33334491 -.01147269  00000-0 -55515-1 0  9998,2 53833  53.2174 319.7333 0001361  71.7707 209.8829 15.20925250 10162,6881.185,94.679,503.987,502.114,0.0
53833.0,STARLINK-4771,PAYLOAD,2022-11-19 14:00:01,15.20320523,0.0001537,53.2165,318.5898,59.104,151.8548,-0.056903,-0.01154653,0.0,0 STARLINK-4771,1 53833U 22114R   22323.58334491 -.01154653  00000-0 -56903-1 0  9992,2 53833  53.2165 318.5898 0001537  59.1040 151.8548 15.20320523  1302,6883.01,94.717,505.9330000000001,503.817,0.0
53833.0,STARLINK-4771,PAYLOAD,2022-11-19 22:00:00,15.19529876,0.000148,53.2167,317.0662,57.1221,178.7142,-0.060015,-0.01187128,0.0,0 STARLINK-4771,1 53833U 22114R   22323.91667824 -.01187128  00000-0 -60015-1 0  9990,2 53833  53.2167 317.0662 0001480  57.1221 178.7142 15.19529876  1301,6885.397,94.766,508.281,506.24300000000005,0.0
53833.0,STARLINK-4771,PAYLOAD,2022-11-20 06:00:00,15.18703595,0.0001383,53.217,315.5473,71.8643,187.8876,-0.060477,-0.01169278,0.0,0 STARLINK-4771,1 53833U 22114R   22324.25001157 -.01169278  00000-0 -60477-1 0  9997,2 53833  53.2170 315.5473 0001383  71.8643 187.8876 15.18703595 10307,6887.895,94.818,510.712,508.807,0.0
53833.0,STARLINK-4771,PAYLOAD,2022-11-20 14:00:01,15.17892878,0.0001396999999999,53.2165,314.029,57.867,224.8163,-0.062235,-0.01174821,0.0,0 STARLINK-4771,1 53833U 22114R   22324.58334491 -.01174821  00000-0 -62235-1 0  9997,2 53833  53.2165 314.0290 0001397  57.8670 224.8163 15.17892878  1304,6890.347,94.868,513.175,511.249,0.0
53833.0,STARLINK-4771,PAYLOAD,2022-11-20 22:00:00,15.17059295,0.0001345,53.2174,312.5116,64.4247,240.2227,-0.062064,-0.01146095,0.0,0 STARLINK-4771,1 53833U 22114R   22324.91667824 -.01146095  00000-0 -62064-1 0  9995,2 53833  53.2174 312.5116 0001345  64.4247 240.2227 15.17059295  1302,6892.871,94.92,515.663,513.809,0.0
53833.0,STARLINK-4771,PAYLOAD,2022-11-21 08:00:01,15.16048538,0.0001379,53.2172,310.6204,57.6839,3.0278,-0.064467,-0.01155604,0.0,0 STARLINK-4771,1 53833U 22114R   22325.33334491 -.01155604  00000-0 -64467-1 0  9998,2 53833  53.2172 310.6204 0001379  57.6839   3.0278 15.16048538 10471,6895.934,94.984,518.75,516.8480000000002,0.0
53833.0,STARLINK-4771,PAYLOAD,2022-11-21 14:00:01,15.15452111,0.0001327,53.2165,309.4853,56.8302,288.7827,-0.066795,-0.01175378,0.0,0 STARLINK-4771,1 53833U 22114R   22325.58334491 -.01175378  00000-0 -66795-1 0  9991,2 53833  53.2165 309.4853 0001327  56.8302 288.7827 15.15452111  1307,6897.743,95.021,520.524,518.693,0.0
53833.0,STARLINK-4771,PAYLOAD,2022-11-21 22:00:00,15.14630184,0.0001372,53.2168,307.9734,48.9633,315.6740000000001,-0.067525,-0.01161872,0.0,0 STARLINK-4771,1 53833U 22114R   22325.91667824 -.01161872  00000-0 -67525-1 0  9993,2 53833  53.2168 307.9734 0001372  48.9633 315.6740 15.14630184  1301,6900.239000000001,95.073,523.05,521.1569999999998,0.0
53833.0,STARLINK-4771,PAYLOAD,2022-11-22 08:00:01,15.13662224,0.0001691,53.2171,306.0895,57.6893,59.3242,-0.073848,-0.01230176,0.0,0 STARLINK-4771,1 53833U 22114R   22326.33334491 -.01230176  00000-0 -73848-1 0  9990,2 53833  53.2171 306.0895 0001691  57.6893  59.3242 15.13662224 10625,6903.18,95.134,526.212,523.878,0.0
53833.0,STARLINK-4771,PAYLOAD,2022-11-22 14:00:01,15.13021154,0.0001399,53.2166,304.9585,55.2806,344.52,-0.072524,-0.01189895,0.0,0 STARLINK-4771,1 53833U 22114R   22326.58335648 -.01189895  00000-0 -72524-1 0  9993,2 53833  53.2166 304.9585 0001399  55.2806 344.5200 15.13021154  1304,6905.13,95.174,527.961,526.029,0.0
53833.0,STARLINK-4771,PAYLOAD,2022-11-22 22:00:00,15.12176193,0.0001372,53.2166,303.4522,53.3825,2.4561,-0.071087,-0.01142866,0.0,0 STARLINK-4771,1 53833U 22114R   22326.91667824 -.01142866  00000-0 -71087-1 0  9994,2 53833  53.2166 303.4522 0001372  53.3825   2.4561 15.12176193 10718,6907.7019999999975,95.227,530.514,528.619,0.0
53833.0,STARLINK-4771,PAYLOAD,2022-11-23 14:00:01,15.10580692,0.0001595999999999,53.2166,300.4487,45.8156,39.2494,-0.0776309999999999,-0.01189633,0.0,0 STARLINK-4771,1 53833U 22114R   22327.58334491 -.01189633  00000-0 -77631-1 0  9993,2 53833  53.2166 300.4487 0001596  45.8156  39.2494 15.10580692  1305,6912.565,95.328,535.533,533.327,0.0
53833.0,STARLINK-4771,PAYLOAD,2022-11-23 22:00:00,15.09650837,0.0001459,53.2166,298.9482,46.92,51.3173,-0.056287,-0.00852204,0.0,0 STARLINK-4771,1 53833U 22114R   22327.91667824 -.00852204  00000-0 -56287-1 0  9993,2 53833  53.2166 298.9482 0001459  46.9200  51.3173 15.09650837  1307,6915.403,95.386,538.2769999999998,536.259,0.0
53833.0,STARLINK-4771,PAYLOAD,2022-11-24 00:00:00,15.09406198,0.0001468,53.2171,298.5745,48.7433,142.6415,-0.043479,-0.00658251,0.0,0 STARLINK-4771,1 53833U 22114R   22328.00001157 -.00658251  00000-0 -43479-1 0  9990,2 53833  53.2171 298.5745 0001468  48.7433 142.6415 15.09406198 10873,6916.15,95.402,539.031,537.0,0.0
53833.0,STARLINK-4771,PAYLOAD,2022-11-24 08:00:01,15.08839742,0.0001355,53.2173,297.0791,66.4511,136.9352,-0.00035634,-5.955e-05,0.0,0 STARLINK-4771,1 53833U 22114R   22328.33334491 -.00005955  00000-0 -35634-3 0  9999,2 53833  53.2173 297.0791 0001355  66.4511 136.9352 15.08839742 10925,6917.880999999999,95.438,540.684,538.809,0.0
53833.0,STARLINK-4771,PAYLOAD,2022-11-24 14:00:01,15.08874359,0.0001403,53.2142,295.9506,59.6191,62.4144,-0.0014137,-0.00022738,0.0,0 STARLINK-4771,1 53833U 22114R   22328.58334491 -.00022738  00000-0 -14137-2 0  9998,2 53833  53.2142 295.9506 0001403  59.6191  62.4144 15.08874359  1301,6917.775,95.435,540.611,538.67,0.0
53833.0,STARLINK-4771,PAYLOAD,2022-11-24 22:00:00,15.08880689,0.0001333,53.2149,294.4533,66.0086,67.6431,-0.0020149,-0.00032247,0.0,0 STARLINK-4771,1 53833U 22114R   22328.91667824 -.00032247  00000-0 -20149-2 0  9990,2 53833  53.2149 294.4533 0001333  66.0086  67.6431 15.08880689  1308,6917.755999999999,95.435,540.543,538.6990000000002,0.0
53833.0,STARLINK-4771,PAYLOAD,2022-11-25 14:00:01,15.08856419,0.0001356,53.2147,291.4611,58.0328,98.8449,-0.0045116,-0.0007141,0.0,0 STARLINK-4771,1 53833U 22114R   22329.58334491 -.00071410  00000-0 -45116-2 0  9991,2 53833  53.2147 291.4611 0001356  58.0328  98.8449 15.08856419  1304,6917.83,95.437,540.633,538.757,0.0
53833.0,STARLINK-4771,PAYLOAD,2022-11-25 22:00:00,15.08819992,0.0001435,53.2149,289.9641,66.362,102.0991,0.0011646,0.00018285,0.0,0 STARLINK-4771,1 53833U 22114R   22329.91667824  .00018285  00000-0  11646-2 0  9997,2 53833  53.2149 289.9641 0001435  66.3620 102.0991 15.08819992 11166,6917.941999999999,95.439,540.799,538.814,0.0
53833.0,STARLINK-4771,PAYLOAD,2022-11-26 14:00:01,15.08855769,0.0001504,53.2148,286.9719,60.1021,131.5241,-0.0012049,-0.00019421,0.0,0 STARLINK-4771,1 53833U 22114R   22330.58334491 -.00019421  00000-0 -12049-2 0  9996,2 53833  53.2148 286.9719 0001504  60.1021 131.5241 15.08855769  1304,6917.831999999999,95.437,540.738,538.6569999999998,0.0
53833.0,STARLINK-4771,PAYLOAD,2022-11-26 22:00:00,15.08860657,0.00016,53.215,285.4751,66.8128,136.4158,-0.0021305,-0.00034054,0.0,0 STARLINK-4771,1 53833U 22114R   22330.91667824 -.00034054  00000-0 -21305-2 0  9996,2 53833  53.2150 285.4751 0001600  66.8128 136.4158 15.08860657  1308,6917.816999999999,95.436,540.789,538.575,0.0
53833.0,STARLINK-4771,PAYLOAD,2022-11-27 06:00:00,15.08824865,0.0001771,53.215,283.9804,59.0367,155.8007,0.0012373,0.0001945,0.0,0 STARLINK-4771,1 53833U 22114R   22331.25001157  .00019450  00000-0  12373-2 0  9991,2 53833  53.2150 283.9804 0001771  59.0367 155.8007 15.08824865 11364,6917.927,95.439,541.0169999999998,538.566,0.0
53833.0,STARLINK-4771,PAYLOAD,2022-11-27 14:00:01,15.08838716,0.0001609,53.2151,282.4827,60.76300000000001,165.6623,-0.0018184,-0.0002911,0.0,0 STARLINK-4771,1 53833U 22114R   22331.58334491 -.00029110  00000-0 -18184-2 0  9999,2 53833  53.2151 282.4827 0001609  60.7630 165.6623 15.08838716  1302,6917.884,95.438,540.862,538.636,0.0
53833.0,STARLINK-4771,PAYLOAD,2022-11-27 22:00:00,15.08833548,0.0001626999999999,53.2152,280.9862,65.4455,172.5531,0.00036834,5.578e-05,0.0,0 STARLINK-4771,1 53833U 22114R   22331.91667824  .00005578  00000-0  36834-3 0  9998,2 53833  53.2152 280.9862 0001627  65.4455 172.5531 15.08833548  1305,6917.9,95.438,540.891,538.64,0.0
53833.0,STARLINK-4771,PAYLOAD,2022-11-28 00:00:00,15.08844138,0.0001649,53.2152,280.6125,62.8266,268.0663,-0.0010691,-0.00017264,0.0,0 STARLINK-4771,1 53833U 22114R   22332.00001157 -.00017264  00000-0 -10691-2 0  9999,2 53833  53.2152 280.6125 0001649  62.8266 268.0663 15.08844138 11483,6917.868,95.437,540.873,538.592,0.0
